ONEWEB-0560             
1 55145U 23004F   25040.78901321  .00000141  00000+0  32504-3 0  9993
2 55145  87.9054  73.4249 0002256  98.0204 262.1184 13.18686200104815
ONEWEB-0565             
1 55146U 23004G   25041.08619562  .00000108  00000+0  24138-3 0  9998
2 55146  87.9049  73.4320 0002367  84.6486 275.4916 13.18686511104844
ONEWEB-0567             
1 55147U 23004H   25041.15572653  .00001878  00000+0  47283-2 0  9996
2 55147  87.9051  73.3727 0002301  92.4260 267.7136 13.18700594104850
ONEWEB-0569             
1 55148U 23004J   25040.74756220 -.00000018  00000+0 -84940-4 0  9995
2 55148  87.8879  58.1034 0002894  94.7333 265.4127 13.13470747105533
ONEWEB-0570             
1 55149U 23004K   25041.14309081  .00000012  00000+0 -15807-5 0  9990
2 55149  87.9052  73.3772 0001902  72.9286 287.2054 13.18686285104845
ONEWEB-0571             
1 55150U 23004L   25041.51615362  .00000080  00000+0  16983-3 0  9993
2 55150  87.9053  73.3106 0002919  82.0888 278.0575 13.18685661104908
ONEWEB-0572             
1 55151U 23004M   25041.52888780  .00000076  00000+0  16208-3 0  9996
2 55151  87.9058 103.8225 0001978  93.4252 266.7106 13.17650466102737
ONEWEB-0573             
1 55152U 23004N   25040.82694554  .00000045  00000+0  80700-4 0  9998
2 55152  87.9047  73.4580 0002555  77.0528 283.0890 13.18686828104802
